[{"OBJECT_NAME":"STARLINK-4295","OBJECT_ID":"2022-076L","EPOCH":"2026-03-09T09:24:54.541152","MEAN_MOTION":15.08837235,"ECCENTRICITY":0.00013716,"INCLINATION":53.2177,"RA_OF_ASC_NODE":95.7345,"ARG_OF_PERICENTER":93.9576,"MEAN_ANOMALY":266.1573,"EPHEMERIS_TYPE":0,"CLASSIFICATION_TYPE":"U","NORAD_CAT_ID":52996,"ELEMENT_SET_NO":999,"REV_AT_EPOCH":20279,"BSTAR":4.4123164e-5,"MEAN_MOTION_DOT":4.14e-6,"MEAN_MOTION_DDOT":0},{"OBJECT_NAME":"CZ-6A DEB","OBJECT_ID":"2024-140KN","EPOCH":"2026-03-09T13:37:52.587264","MEAN_MOTION":14.78327521,"ECCENTRICITY":0.01349,"INCLINATION":88.7947,"RA_OF_ASC_NODE":265.1899,"ARG_OF_PERICENTER":188.1767,"MEAN_ANOMALY":171.726,"EPHEMERIS_TYPE":0,"CLASSIFICATION_TYPE":"U","NORAD_CAT_ID":60883,"ELEMENT_SET_NO":999,"REV_AT_EPOCH":8325,"BSTAR":0.00065033,"MEAN_MOTION_DOT":5.532e-5,"MEAN_MOTION_DDOT":0}]
